0 FENGYUN 1C DEB
1 33721U 99025DHJ 13283.20361262  .00006316  00000-0  13077-2 0  4609
2 33721 098.8102 055.0560 0155822 125.9448 354.9956 14.53234113327362
0 FENGYUN 1C DEB
1 33721U 99025DHJ 13284.16774483  .00005945  00000-0  12312-2 0  4617
2 33721 098.8101 056.0690 0155935 123.0307 358.9863 14.53237564327504
0 FENGYUN 1C DEB
1 33721U 99025DHJ 13285.60133337  .00004735  00000-0  98312-3 0  4637
2 33721 098.8099 057.5760 0155736 118.7136 299.0843 14.53257718327713
0 FENGYUN 1C DEB
1 33721U 99025DHJ 13288.16186461  .00008128  00000-0  16775-2 0  4640
2 33721 098.8103 060.2676 0155697 110.9798 015.1760 14.53284104328085
0 FENGYUN 1C DEB
1 33721U 99025DHJ 13290.15811519  .00006298  00000-0  13023-2 0  4651
2 33721 098.8111 062.3663 0155637 104.9531 019.2750 14.53306063328370
0 FENGYUN 1C DEB
1 33721U 99025DHJ 13292.84835664  .00005196  00000-0  10764-2 0  4662
2 33721 098.8120 065.1950 0155501 096.8351 054.4674 14.53335287328768
0 FENGYUN 1C DEB
1 33721U 99025DHJ 13295.18384494  .00005561  00000-0  11509-2 0  4677
2 33721 098.8121 067.6508 0155393 089.7769 033.8285 14.53353649329108
